ARSAT 2                 
1 40941U 15054B   16047.81902888 -.00000249  00000-0  00000+0 0  9990
2 40941   0.0028  95.0956 0001279 231.6794  33.1826  1.00272039  1485
MORELOS 3               
1 40946U 15056A   16047.82884945 -.00000062  00000-0  00000+0 0  9994
2 40946   6.9902 331.4323 0003358   2.6420 357.4328  1.00273161  1456
APSTAR 9                
1 40982U 15059A   16047.20086685 -.00000289  00000-0  00000+0 0  9995
2 40982   0.0340 256.8135 0002579  20.0822  83.0418  1.00272663  1326
TURKSAT 4B              
1 40984U 15060A   16047.45587697  .00000091  00000-0  00000+0 0  9995
2 40984   0.0196 256.3936 0001950  77.5899  25.9730  1.00270179  1270
CHINASAT 2C (ZX 2C)     
1 41021U 15063A   16048.48911118 -.00000350  00000-0  00000+0 0  9993
2 41021   0.3601 270.5111 0002684 120.1943  35.6513  1.00275300  1188
GSAT-15                 
1 41028U 15065A   16047.84105270 -.00000282  00000-0  00000+0 0  9999
2 41028   0.0443 267.5459 0001512  18.4467 256.5149  1.00270593  1027
BADR-7 (ARABSAT-6B)     
1 41029U 15065B   16048.03521427  .00000119  00000-0  00000+0 0  9996
2 41029   0.0480 255.2161 0004222   9.0647 280.7898  1.00270755  1075
LAOSAT 1                
1 41034U 15067A   16048.39357911 -.00000369  00000-0  00000+0 0  9996
2 41034   0.0063 205.1959 0002173   8.7936 202.9793  1.00270768  1037
TELSTAR 12V             
1 41036U 15068A   16047.70376341 -.00000144  00000-0  00000+0 0  9992
2 41036   0.0275 202.9326 0001731  93.8774  87.6248  1.00270901   896
CHINASAT 1C (ZX 1C)     
1 41103U 15073A   16048.01396756 -.00000174  00000-0  00000+0 0  9993
2 41103   0.0211 328.8860 0001418   3.5398 260.4609  1.00270104   835
ELEKTRO-L 2             
1 41105U 15074A   16048.01350781 -.00000140  00000-0  00000+0 0  9997
2 41105   0.3345 276.6674 0000185 174.8759 137.5800  1.00271861   685
COSMOS 2513             
1 41121U 15075A   16047.57663378 -.00000162  00000-0  00000+0 0  9999
2 41121   0.0132 256.5393 0003383 175.1691   2.0788  1.00270729   763
EXPRESS-AMU1            
1 41191U 15082A   16046.93452534  .00000132  00000-0  00000-0 0  9990
2 41191   0.0029 111.7453 0000914 223.7767 182.3267  1.00269727   664
GAOFEN 4                
1 41194U 15083A   16047.77858451 -.00000360  00000-0  00000+0 0  9998
2 41194   0.5036 267.0486 0000515 276.2286 349.1929  1.00269340   655
IRNSS-1E                
1 41241U 16003A   16048.52991528 -.00000321  00000-0  00000+0 0  9998
2 41241  28.0641 123.2653 0021371 184.3477 141.9278  1.00271110   369
